SOMP                    
1 39134U 13015E   17345.55094192  .00001717  00000-0  91455-4 0  9999
2 39134  64.8645  13.6235 0030235 236.9828 122.8393 15.18602563256026
